{
    "links": {
        "self": "http://www.neowsapp.com/rest/v1/neo/3826891?api_key=iIulBulltgU6a56xZRHN4H3l9WmuAYTsLGpBGhQ2"
    },
    "id": "3826891",
    "neo_reference_id": "3826891",
    "name": "(2018 QX)",
    "designation": "2018 QX",
    "nasa_jpl_url": "http://ssd.jpl.nasa.gov/sbdb.cgi?sstr=3826891",
    "absolute_magnitude_h": 26.8,
    "estimated_diameter": {
        "kilometers": {
            "estimated_diameter_min": 0.0116025908,
            "estimated_diameter_max": 0.0259441818
        },
        "meters": {
            "estimated_diameter_min": 11.6025908209,
            "estimated_diameter_max": 25.9441817907
        },
        "miles": {
            "estimated_diameter_min": 0.0072095135,
            "estimated_diameter_max": 0.0161209622
        },
        "feet": {
            "estimated_diameter_min": 38.066244069,
            "estimated_diameter_max": 85.1187093863
        }
    },
    "is_potentially_hazardous_asteroid": false,
    "close_approach_data": [
        {
            "close_approach_date": "2018-08-10",
            "close_approach_date_full": "2018-Aug-10 13:04",
            "epoch_date_close_approach": 1533906240000,
            "relative_velocity": {
                "kilometers_per_second": "4.8625820613",
                "kilometers_per_hour": "17505.2954205199",
                "miles_per_hour": "10877.1098128225"
            },
            "miss_distance": {
                "astronomical": "0.0141840167",
                "lunar": "5.5175824963",
                "kilometers": "2121898.686364429",
                "miles": "1318486.7046659602"
            },
            "orbiting_body": "Earth"
        },
        {
            "close_approach_date": "2021-09-16",
            "close_approach_date_full": "2021-Sep-16 13:26",
            "epoch_date_close_approach": 1631798760000,
            "relative_velocity": {
                "kilometers_per_second": "6.1622291847",
                "kilometers_per_hour": "22184.0250647978",
                "miles_per_hour": "13784.2904631795"
            },
            "miss_distance": {
                "astronomical": "0.0559489366",
                "lunar": "21.7641363374",
                "kilometers": "8369841.744125042",
                "miles": "5200778.4964958996"
            },
            "orbiting_body": "Mars"
        }
    ],
    "orbital_data": {
        "orbit_id": "4",
        "orbit_determination_date": "2018-09-10 06:55:10",
        "first_observation_date": "2018-08-19",
        "last_observation_date": "2018-09-09",
        "data_arc_in_days": 21,
        "observations_used": 17,
        "orbit_uncertainty": "8",
        "minimum_orbit_intersection": ".0123425",
        "jupiter_tisserand_invariant": "4.533",
        "epoch_osculation": "2458352.5",
        "eccentricity": ".3085660834509985",
        "semi_major_axis": "1.477433484115325",
        "inclination": "3.898583617297799",
        "ascending_node_longitude": "146.7314467472609",
        "orbital_period": "655.9342873150867",
        "perihelion_distance": "1.021547620362496",
        "perihelion_argument": "167.3124557344018",
        "aphelion_distance": "1.933319347868153",
        "perihelion_time": "2458337.575441940434",
        "mean_anomaly": "8.191126771915254",
        "mean_motion": ".5488354656280824",
        "equinox": "J2000",
        "orbit_class": {
            "orbit_class_type": "AMO",
            "orbit_class_description": "Near-Earth asteroid orbits similar to that of 1221 Amor",
            "orbit_class_range": "1.017 AU < q (perihelion) < 1.3 AU"
        }
    },
    "is_sentry_object": false
}